LEMUR-2-ANDIS           
1 42838U 17042P   26068.55941107  .00023598  00000+0  79875-3 0  9998
2 42838  97.3659 249.7950 0009101   4.3248 355.8070 15.30557934473198
STARLINK-32947          
1 63121U 25039T   26068.17335632  .00035426  00000+0  12927-2 0  9996
2 63121  43.0049  15.1957 0001372 260.7076  99.3620 15.27528698 57996
